start=new Date('2021-09-10T00:00:00.000Z').valueOf();
sats=[{"INCLINATION":"53.0566","COUNTRY_CODE":"US","EPOCH":"2021-09-09T20:25:44.594976","RCS_SIZE":"LARGE","CLASSIFICATION_TYPE":"U","REV_AT_EPOCH":"3004","DECAY_DATE":null,"EPHEMERIS_TYPE":"0","SITE":"AFETR","NORAD_CAT_ID":"47766","ECCENTRICITY":"0.00014920","APOAPSIS":"548.264","MEAN_ANOMALY":"256.2531","GP_ID":"184409231","FILE":"3111873","OBJECT_ID":"2021-017AW","TIME_SYSTEM":"UTC","RA_OF_ASC_NODE":"37.1108","MEAN_MOTION":"15.06394405","TLE_LINE2":"2 47766  53.0566  37.1108 0001492 103.8624 256.2531 15.06394405 30045","SEMIMAJOR_AXIS":"6925.366","PERIOD":"95.592","PERIAPSIS":"546.197","ELEMENT_SET_NO":"999","ARG_OF_PERICENTER":"103.8624","OBJECT_TYPE":"PAYLOAD","MEAN_MOTION_DOT":"0.00000053","MEAN_ELEMENT_THEORY":"SGP4","TLE_LINE1":"1 47766U 21017AW  21252.85121059  .00000053  00000-0  22462-4 0  9992","OBJECT_NAME":"STARLINK-2184","CENTER_NAME":"EARTH","BSTAR":"0.00002246200000","REF_FRAME":"TEME","LAUNCH_DATE":"2021-03-04","MEAN_MOTION_DDOT":"0.0000000000000"},{"ELEMENT_SET_NO":"999","ARG_OF_PERICENTER":"106.9038","OBJECT_TYPE":"PAYLOAD","MEAN_MOTION_DOT":"0.00001768","MEAN_ELEMENT_THEORY":"SGP4","TLE_LINE2":"2 47767  53.0567  21.9975 0001438 106.9038 253.2108 15.06403026 30321","PERIOD":"95.592","SEMIMAJOR_AXIS":"6925.339","PERIAPSIS":"546.208","LAUNCH_DATE":"2021-03-04","MEAN_MOTION_DDOT":"0.0000000000000","TLE_LINE1":"1 47767U 21017AX  21252.87653969  .00001768  00000-0  13755-3 0  9993","CENTER_NAME":"EARTH","OBJECT_NAME":"STARLINK-2185","BSTAR":"0.00013755000000","REF_FRAME":"TEME","REV_AT_EPOCH":"3032","CLASSIFICATION_TYPE":"U","DECAY_DATE":null,"EPHEMERIS_TYPE":"0","SITE":"AFETR","NORAD_CAT_ID":"47767","INCLINATION":"53.0567","COUNTRY_CODE":"US","EPOCH":"2021-09-09T21:02:13.029216","RCS_SIZE":"LARGE","OBJECT_ID":"2021-017AX","TIME_SYSTEM":"UTC","RA_OF_ASC_NODE":"21.9975","MEAN_MOTION":"15.06403026","ECCENTRICITY":"0.00014380","MEAN_ANOMALY":"253.2108","APOAPSIS":"548.200","GP_ID":"184408489","FILE":"3111873"},{"RCS_SIZE":"LARGE","COUNTRY_CODE":"US","EPOCH":"2021-09-09T19:31:17.817024","INCLINATION":"53.0570","NORAD_CAT_ID":"47768","SITE":"AFETR","DECAY_DATE":null,"EPHEMERIS_TYPE":"0","REV_AT_EPOCH":"3007","CLASSIFICATION_TYPE":"U","FILE":"3111873","GP_ID":"184408739","APOAPSIS":"548.181","MEAN_ANOMALY":"262.2757","ECCENTRICITY":"0.00014150","MEAN_MOTION":"15.06403969","RA_OF_ASC_NODE":"37.2926","TIME_SYSTEM":"UTC","OBJECT_ID":"2021-017AY","PERIAPSIS":"546.221","SEMIMAJOR_AXIS":"6925.336","PERIOD":"95.592","TLE_LINE2":"2 47768  53.0570  37.2926 0001415  97.8393 262.2757 15.06403969 30077","OBJECT_TYPE":"PAYLOAD","MEAN_ELEMENT_THEORY":"SGP4","MEAN_MOTION_DOT":"0.00001345","ARG_OF_PERICENTER":"97.8393","ELEMENT_SET_NO":"999","REF_FRAME":"TEME","BSTAR":"0.00010913000000","CENTER_NAME":"EARTH","OBJECT_NAME":"STARLINK-2189","TLE_LINE1":"1 47768U 21017AY  21252.81340066  .00001345  00000-0  10913-3 0  9993","MEAN_MOTION_DDOT":"0.0000000000000","LAUNCH_DATE":"2021-03-04"},{"EPOCH":"2021-09-09T19:02:48.463872","COUNTRY_CODE":"US","RCS_SIZE":"LARGE","INCLINATION":"53.0470","SITE":"AFETR","NORAD_CAT_ID":"47769","REV_AT_EPOCH":"3058","CLASSIFICATION_TYPE":"U","EPHEMERIS_TYPE":"0","DECAY_DATE":null,"GP_ID":"184409491","FILE":"3111873","ECCENTRICITY":"0.00016780","MEAN_ANOMALY":"287.9291","APOAPSIS":"548.409","MEAN_MOTION":"15.06389237","RA_OF_ASC_NODE":"2.4020","OBJECT_ID":"2021-017AZ","TIME_SYSTEM":"UTC","PERIAPSIS":"546.084","TLE_LINE2":"2 47769  53.0470   2.4020 0001678  72.1881 287.9291 15.06389237 30589","SEMIMAJOR_AXIS":"6925.382","PERIOD":"95.593","ARG_OF_PERICENTER":"72.1881","MEAN_ELEMENT_THEORY":"SGP4","MEAN_MOTION_DOT":"0.00000479","OBJECT_TYPE":"PAYLOAD","ELEMENT_SET_NO":"999","BSTAR":"0.00005105900000","REF_FRAME":"TEME","TLE_LINE1":"1 47769U 21017AZ  21252.79361648  .00000479  00000-0  51059-4 0  9994","OBJECT_NAME":"STARLINK-2192","CENTER_NAME":"EARTH","MEAN_MOTION_DDOT":"0.0000000000000","LAUNCH_DATE":"2021-03-04"},{"LAUNCH_DATE":"2021-03-04","MEAN_MOTION_DDOT":"0.0000000000000","CENTER_NAME":"EARTH","OBJECT_NAME":"STARLINK-2193","TLE_LINE1":"1 47770U 21017BA  21252.86315776  .00001847  00000-0  14286-3 0  9995","REF_FRAME":"TEME","BSTAR":"0.00014286000000","ELEMENT_SET_NO":"999","OBJECT_TYPE":"PAYLOAD","MEAN_ELEMENT_THEORY":"SGP4","MEAN_MOTION_DOT":"0.00001847","ARG_OF_PERICENTER":"124.5937","SEMIMAJOR_AXIS":"6925.351","PERIOD":"95.592","TLE_LINE2":"2 47770  53.0562  17.0517 0001236 124.5937 235.5169 15.06399266 30362","PERIAPSIS":"546.360","TIME_SYSTEM":"UTC","OBJECT_ID":"2021-017BA","MEAN_MOTION":"15.06399266","RA_OF_ASC_NODE":"17.0517","MEAN_ANOMALY":"235.5169","APOAPSIS":"548.072","ECCENTRICITY":"0.00012360","FILE":"3111873","GP_ID":"184409731","DECAY_DATE":null,"EPHEMERIS_TYPE":"0","CLASSIFICATION_TYPE":"U","REV_AT_EPOCH":"3036","NORAD_CAT_ID":"47770","SITE":"AFETR","INCLINATION":"53.0562","RCS_SIZE":"LARGE","COUNTRY_CODE":"US","EPOCH":"2021-09-09T20:42:56.830464"},{"SITE":"AFETR","NORAD_CAT_ID":"47771","CLASSIFICATION_TYPE":"U","REV_AT_EPOCH":"2966","DECAY_DATE":null,"EPHEMERIS_TYPE":"0","COUNTRY_CODE":"US","EPOCH":"2021-09-09T13:07:50.960640","RCS_SIZE":"LARGE","INCLINATION":"53.0567","MEAN_MOTION":"15.06396587","RA_OF_ASC_NODE":"18.4672","TIME_SYSTEM":"UTC","OBJECT_ID":"2021-017BB","GP_ID":"184383407","FILE":"3111705","ECCENTRICITY":"0.00013420","MEAN_ANOMALY":"243.3550","APOAPSIS":"548.153","ARG_OF_PERICENTER":"116.7576","OBJECT_TYPE":"PAYLOAD","MEAN_MOTION_DOT":"-0.00000940","MEAN_ELEMENT_THEORY":"SGP4","ELEMENT_SET_NO":"999","PERIAPSIS":"546.295","TLE_LINE2":"2 47771  53.0567  18.4672 0001342 116.7576 243.3550 15.06396587 29660","SEMIMAJOR_AXIS":"6925.359","PERIOD":"95.592","MEAN_MOTION_DDOT":"0.0000000000000","LAUNCH_DATE":"2021-03-04","BSTAR":"-0.00004420900000","REF_FRAME":"TEME","TLE_LINE1":"1 47771U 21017BB  21252.54711760 -.00000940  00000-0 -44209-4 0  9998","OBJECT_NAME":"STARLINK-2194","CENTER_NAME":"EARTH"},{"REV_AT_EPOCH":"3004","CLASSIFICATION_TYPE":"U","EPHEMERIS_TYPE":"0","DECAY_DATE":null,"SITE":"AFETR","NORAD_CAT_ID":"47772","INCLINATION":"53.0558","EPOCH":"2021-09-09T06:30:25.736544","COUNTRY_CODE":"US","RCS_SIZE":"LARGE","OBJECT_ID":"2021-017BC","TIME_SYSTEM":"UTC","RA_OF_ASC_NODE":"34.7109","MEAN_MOTION":"15.06394836","ECCENTRICITY":"0.00011440","MEAN_ANOMALY":"229.5820","APOAPSIS":"548.022","GP_ID":"184381320","FILE":"3111654","ELEMENT_SET_NO":"999","ARG_OF_PERICENTER":"130.5269","MEAN_MOTION_DOT":"0.00001101","MEAN_ELEMENT_THEORY":"SGP4","OBJECT_TYPE":"PAYLOAD","TLE_LINE2":"2 47772  53.0558  34.7109 0001144 130.5269 229.5820 15.06394836 30045","SEMIMAJOR_AXIS":"6925.364","PERIOD":"95.592","PERIAPSIS":"546.437","LAUNCH_DATE":"2021-03-04","MEAN_MOTION_DDOT":"0.0000000000000","TLE_LINE1":"1 47772U 21017BC  21252.27113121  .00001101  00000-0  92776-4 0  9996","OBJECT_NAME":"STARLINK-2195","CENTER_NAME":"EARTH","BSTAR":"0.00009277600000","REF_FRAME":"TEME"},{"INCLINATION":"53.0562","RCS_SIZE":"LARGE","EPOCH":"2021-09-09T19:09:26.289216","COUNTRY_CODE":"US","EPHEMERIS_TYPE":"0","DECAY_DATE":null,"REV_AT_EPOCH":"3011","CLASSIFICATION_TYPE":"U","NORAD_CAT_ID":"47773","SITE":"AFETR","MEAN_ANOMALY":"262.2869","APOAPSIS":"548.380","ECCENTRICITY":"0.00016720","FILE":"3111873","GP_ID":"184408992","TIME_SYSTEM":"UTC","OBJECT_ID":"2021-017BD","RA_OF_ASC_NODE":"32.3486","MEAN_MOTION":"15.06397334","SEMIMAJOR_AXIS":"6925.357","PERIOD":"95.592","TLE_LINE2":"2 47773  53.0562  32.3486 0001672  97.8310 262.2869 15.06397334 30112","PERIAPSIS":"546.064","ELEMENT_SET_NO":"999","MEAN_ELEMENT_THEORY":"SGP4","MEAN_MOTION_DOT":"-0.00000574","OBJECT_TYPE":"PAYLOAD","ARG_OF_PERICENTER":"97.8310","CENTER_NAME":"EARTH","OBJECT_NAME":"STARLINK-2196","TLE_LINE1":"1 47773U 21017BD  21252.79822094 -.00000574  00000-0 -19665-4 0  9991","REF_FRAME":"TEME","BSTAR":"-0.00001966500000","LAUNCH_DATE":"2021-03-04","MEAN_MOTION_DDOT":"0.0000000000000"},{"EPOCH":"2021-09-09T14:17:31.032384","COUNTRY_CODE":"US","RCS_SIZE":"LARGE","INCLINATION":"53.0561","SITE":"AFETR","NORAD_CAT_ID":"47774","CLASSIFICATION_TYPE":"U","REV_AT_EPOCH":"3009","EPHEMERIS_TYPE":"0","DECAY_DATE":null,"GP_ID":"184409232","FILE":"3111873","ECCENTRICITY":"0.00020170","MEAN_ANOMALY":"260.7498","APOAPSIS":"548.623","RA_OF_ASC_NODE":"33.2553","MEAN_MOTION":"15.06395937","TIME_SYSTEM":"UTC","OBJECT_ID":"2021-017BE","PERIAPSIS":"545.829","TLE_LINE2":"2 47774  53.0561  33.2553 0002017  99.3719 260.7498 15.06395937 30096","PERIOD":"95.592","SEMIMAJOR_AXIS":"6925.361","ARG_OF_PERICENTER":"99.3719","MEAN_ELEMENT_THEORY":"SGP4","MEAN_MOTION_DOT":"-0.00000020","OBJECT_TYPE":"PAYLOAD","ELEMENT_SET_NO":"999","BSTAR":"0.00001755500000","REF_FRAME":"TEME","TLE_LINE1":"1 47774U 21017BE  21252.59549806 -.00000020  00000-0  17555-4 0  9998","OBJECT_NAME":"STARLINK-2197","CENTER_NAME":"EARTH","MEAN_MOTION_DDOT":"0.0000000000000","LAUNCH_DATE":"2021-03-04"},{"ELEMENT_SET_NO":"999","ARG_OF_PERICENTER":"108.8177","MEAN_ELEMENT_THEORY":"SGP4","MEAN_MOTION_DOT":"0.00000604","OBJECT_TYPE":"PAYLOAD","TLE_LINE2":"2 47775  53.0569  33.2225 0001786 108.8177 251.3006 15.06397057 30149","PERIOD":"95.592","SEMIMAJOR_AXIS":"6925.358","PERIAPSIS":"545.986","LAUNCH_DATE":"2021-03-04","MEAN_MOTION_DDOT":"0.0000000000000","TLE_LINE1":"1 47775U 21017BF  21252.60654928  .00000604  00000-0  59469-4 0  9990","CENTER_NAME":"EARTH","OBJECT_NAME":"STARLINK-2198","BSTAR":"0.00005946900000","REF_FRAME":"TEME","REV_AT_EPOCH":"3014","CLASSIFICATION_TYPE":"U","EPHEMERIS_TYPE":"0","DECAY_DATE":null,"SITE":"AFETR","NORAD_CAT_ID":"47775","INCLINATION":"53.0569","EPOCH":"2021-09-09T14:33:25.857792","COUNTRY_CODE":"US","RCS_SIZE":"LARGE","TIME_SYSTEM":"UTC","OBJECT_ID":"2021-017BF","MEAN_MOTION":"15.06397057","RA_OF_ASC_NODE":"33.2225","ECCENTRICITY":"0.00017860","APOAPSIS":"548.459","MEAN_ANOMALY":"251.3006","GP_ID":"184408490","FILE":"3111873"}];
